{
    "links": {
        "self": "http://www.neowsapp.com/rest/v1/neo/3249983?api_key=iIulBulltgU6a56xZRHN4H3l9WmuAYTsLGpBGhQ2"
    },
    "id": "3249983",
    "neo_reference_id": "3249983",
    "name": "(2004 QX2)",
    "designation": "2004 QX2",
    "nasa_jpl_url": "http://ssd.jpl.nasa.gov/sbdb.cgi?sstr=3249983",
    "absolute_magnitude_h": 21.7,
    "estimated_diameter": {
        "kilometers": {
            "estimated_diameter_min": 0.1214940408,
            "estimated_diameter_max": 0.2716689341
        },
        "meters": {
            "estimated_diameter_min": 121.4940407996,
            "estimated_diameter_max": 271.6689340891
        },
        "miles": {
            "estimated_diameter_min": 0.0754928736,
            "estimated_diameter_max": 0.1688071972
        },
        "feet": {
            "estimated_diameter_min": 398.6025088171,
            "estimated_diameter_max": 891.3023057169
        }
    },
    "is_potentially_hazardous_asteroid": true,
    "close_approach_data": [
        {
            "close_approach_date": "2001-07-26",
            "close_approach_date_full": "2001-Jul-26 14:00",
            "epoch_date_close_approach": 996156000000,
            "relative_velocity": {
                "kilometers_per_second": "67.0829227059",
                "kilometers_per_hour": "241498.521741254",
                "miles_per_hour": "150057.7898008364"
            },
            "miss_distance": {
                "astronomical": "0.0940819912",
                "lunar": "36.5978945768",
                "kilometers": "14074465.488878744",
                "miles": "8745467.3220809072"
            },
            "orbiting_body": "Merc"
        },
        {
            "close_approach_date": "2001-09-01",
            "close_approach_date_full": "2001-Sep-01 15:20",
            "epoch_date_close_approach": 999357600000,
            "relative_velocity": {
                "kilometers_per_second": "43.4713226629",
                "kilometers_per_hour": "156496.7615864508",
                "miles_per_hour": "97241.0016646477"
            },
            "miss_distance": {
                "astronomical": "0.3015577251",
                "lunar": "117.3059550639",
                "kilometers": "45112393.357005537",
                "miles": "28031541.3921969306"
            },
            "orbiting_body": "Earth"
        },
        {
            "close_approach_date": "2004-08-13",
            "close_approach_date_full": "2004-Aug-13 05:18",
            "epoch_date_close_approach": 1092374280000,
            "relative_velocity": {
                "kilometers_per_second": "29.4786325791",
                "kilometers_per_hour": "106123.0772847564",
                "miles_per_hour": "65940.7532161866"
            },
            "miss_distance": {
                "astronomical": "0.1666260194",
                "lunar": "64.8175215466",
                "kilometers": "24926897.588818678",
                "miles": "15488855.9338986364"
            },
            "orbiting_body": "Earth"
        },
        {
            "close_approach_date": "2005-11-03",
            "close_approach_date_full": "2005-Nov-03 01:04",
            "epoch_date_close_approach": 1130979840000,
            "relative_velocity": {
                "kilometers_per_second": "26.6553721819",
                "kilometers_per_hour": "95959.3398548825",
                "miles_per_hour": "59625.4020337185"
            },
            "miss_distance": {
                "astronomical": "0.3920877342",
                "lunar": "152.5221286038",
                "kilometers": "58655489.889446154",
                "miles": "36446831.3552747652"
            },
            "orbiting_body": "Earth"
        },
        {
            "close_approach_date": "2008-10-13",
            "close_approach_date_full": "2008-Oct-13 23:56",
            "epoch_date_close_approach": 1223942160000,
            "relative_velocity": {
                "kilometers_per_second": "41.0118610427",
                "kilometers_per_hour": "147642.6997536977",
                "miles_per_hour": "91739.4319664018"
            },
            "miss_distance": {
                "astronomical": "0.3890031793",
                "lunar": "151.3222367477",
                "kilometers": "58194047.046508091",
                "miles": "36160104.0683940158"
            },
            "orbiting_body": "Earth"
        }
    ],
    "orbital_data": {
        "orbit_id": "10",
        "orbit_determination_date": "2017-04-06 09:12:27",
        "first_observation_date": "2004-08-20",
        "last_observation_date": "2004-09-06",
        "data_arc_in_days": 17,
        "observations_used": 21,
        "orbit_uncertainty": "8",
        "minimum_orbit_intersection": ".036921",
        "jupiter_tisserand_invariant": "4.453",
        "epoch_osculation": "2453240.5",
        "eccentricity": ".9024918683504531",
        "semi_major_axis": "1.285288388215491",
        "inclination": "19.05489297054969",
        "ascending_node_longitude": "320.3662619998369",
        "orbital_period": "532.2299414500006",
        "perihelion_distance": ".12532606936575",
        "perihelion_argument": "218.6315342137782",
        "aphelion_distance": "2.445250707065232",
        "perihelion_time": "2453187.539303980378",
        "mean_anomaly": "35.82258171180892",
        "mean_motion": ".6763993754639592",
        "equinox": "J2000",
        "orbit_class": {
            "orbit_class_type": "APO",
            "orbit_class_description": "Near-Earth asteroid orbits which cross the Earth’s orbit similar to that of 1862 Apollo",
            "orbit_class_range": "a (semi-major axis) > 1.0 AU; q (perihelion) < 1.017 AU"
        }
    },
    "is_sentry_object": false
}